NORAD_CAT_ID,OBJECT_NAME,OBJECT_TYPE,EPOCH,MEAN_MOTION,ECCENTRICITY,INCLINATION,RA_OF_ASC_NODE,ARG_OF_PERICENTER,MEAN_ANOMALY,BSTAR,MEAN_MOTION_DOT,MEAN_MOTION_DDOT,TLE_LINE0,TLE_LINE1,TLE_LINE2,SEMIMAJOR_AXIS,PERIOD,APOGEE,PERIGEE,DECAYED
50834.0,STARLINK-3331,PAYLOAD,2023-05-18 04:18:21,15.08840412,0.0001102,53.2166,107.3024,89.5981,270.5138,8.8793e-05,1.126e-05,0.0,0 STARLINK-3331,1 50834U 22001AH  23138.17941340  .00001126  00000-0  88793-4 0  9990,2 50834  53.2166 107.3024 0001102  89.5981 270.5138 15.08840412 76570,6917.879,95.438,540.506,538.982,0.0
50834.0,STARLINK-3331,PAYLOAD,2023-05-18 21:47:36,15.08837287,0.0001124,53.2162,104.0325,86.7215,273.3906,2.0535e-05,3.9e-07,0.0,0 STARLINK-3331,1 50834U 22001AH  23138.90805824  .00000039  00000-0  20535-4 0  9999,2 50834  53.2162 104.0325 0001124  86.7215 273.3906 15.08837287 75408,6917.889,95.438,540.531,538.976,0.0
50834.0,STARLINK-3331,PAYLOAD,2023-05-19 02:33:45,15.08837447,0.0001116,53.2164,103.14,87.4903,272.6217,1.8789e-05,1.1e-07,0.0,0 STARLINK-3331,1 50834U 22001AH  23139.10677824  .00000011  00000-0  18789-4 0  9997,2 50834  53.2164 103.1400 0001116  87.4903 272.6217 15.08837447 76717,6917.888,95.438,540.525,538.981,0.0
50834.0,STARLINK-3331,PAYLOAD,2023-05-19 07:19:54,15.08839789,0.00012,53.2169,102.2471,95.4787,264.6342,1.6017e-05,-3.3e-07,0.0,0 STARLINK-3331,1 50834U 22001AH  23139.30549680 -.00000033  00000-0  16017-4 0  9994,2 50834  53.2169 102.2471 0001200  95.4787 264.6342 15.08839789 75465,6917.881,95.438,540.576,538.916,0.0
50834.0,STARLINK-3331,PAYLOAD,2023-05-20 03:59:55,15.08845261,0.0001122,53.2162,98.3819,90.3178,269.7943,0.00010902,1.448e-05,0.0,0 STARLINK-3331,1 50834U 22001AH  23140.16661082  .00001448  00000-0  10902-3 0  9997,2 50834  53.2162  98.3819 0001122  90.3178 269.7943 15.08845261 76871,6917.864,95.437,540.505,538.953,0.0
50834.0,STARLINK-3331,PAYLOAD,2023-05-20 07:10:41,15.0884685,0.000112,53.2161,97.7869,89.9574,270.1547,0.00012085,1.636e-05,0.0,0 STARLINK-3331,1 50834U 22001AH  23140.29908921  .00001636  00000-0  12085-3 0  9990,2 50834  53.2161  97.7869 0001120  89.9574 270.1547 15.08846850 75612,6917.859,95.437,540.499,538.95,0.0
50834.0,STARLINK-3331,PAYLOAD,2023-05-21 03:50:41,15.08850442,0.0001106,53.2163,93.9205,85.7551,274.3568,0.00015067,2.112e-05,0.0,0 STARLINK-3331,1 50834U 22001AH  23141.16020385  .00002112  00000-0  15067-3 0  9999,2 50834  53.2163  93.9205 0001106  85.7551 274.3568 15.08850442 75744,6917.848,95.437,540.479,538.948,0.0
50834.0,STARLINK-3331,PAYLOAD,2023-05-21 21:19:57,15.08835658,0.0001164,53.217,90.6495,85.9439,274.1686,-6.9249e-05,-1.39e-05,0.0,0 STARLINK-3331,1 50834U 22001AH  23141.88886156 -.00001390  00000-0 -69249-4 0  9995,2 50834  53.2170  90.6495 0001164  85.9439 274.1686 15.08835658 75851,6917.894,95.438,540.564,538.953,0.0
50834.0,STARLINK-3331,PAYLOAD,2023-05-22 03:41:30,15.08829264,0.000118,53.2169,89.4602,85.5846,274.5281,-0.00012058,-2.206e-05,0.0,0 STARLINK-3331,1 50834U 22001AH  23142.15382793 -.00002206  00000-0 -12058-3 0  9996,2 50834  53.2169  89.4602 0001180  85.5846 274.5281 15.08829264 77179,6917.913,95.438,540.595,538.962,0.0
50834.0,STARLINK-3331,PAYLOAD,2023-05-22 13:13:49,15.08828864,0.000112,53.2165,87.6768,79.1622,280.9496,-0.00010319,-1.929e-05,0.0,0 STARLINK-3331,1 50834U 22001AH  23142.55127033 -.00001929  00000-0 -10319-3 0  9993,2 50834  53.2165  87.6768 0001120  79.1622 280.9496 15.08828864 75951,6917.914,95.438,540.554,539.005,0.0
50834.0,STARLINK-3331,PAYLOAD,2023-05-23 01:56:53,15.08848489,0.0001057,53.2158,85.2973,83.6255,276.4858,-2.9586e-06,-3.35e-06,0.0,0 STARLINK-3331,1 50834U 22001AH  23143.08117521 -.00000335  00000-0 -29586-5 0  9991,2 50834  53.2158  85.2973 0001057  83.6255 276.4858 15.08848489 77315,6917.854,95.437,540.451,538.988,0.0
50834.0,STARLINK-3331,PAYLOAD,2023-05-23 05:07:39,15.08853885,0.0001125,53.2167,84.7034,93.0832,267.0289,5.4708e-05,5.83e-06,0.0,0 STARLINK-3331,1 50834U 22001AH  23143.21365001  .00000583  00000-0  54708-4 0  9990,2 50834  53.2167  84.7034 0001125  93.0832 267.0289 15.08853885 77331,6917.838,95.437,540.481,538.925,0.0
50834.0,STARLINK-3331,PAYLOAD,2023-05-24 01:47:40,15.0884531,0.0001196,53.217,80.838,87.7682,272.3447,0.00033247,5.008e-05,0.0,0 STARLINK-3331,1 50834U 22001AH  23144.07477120  .00005008  00000-0  33247-3 0  9992,2 50834  53.2170  80.8380 0001196  87.7682 272.3447 15.08845310 77460,6917.864,95.437,540.557,538.902,0.0
50834.0,STARLINK-3331,PAYLOAD,2023-05-24 03:23:03,15.0885388,0.0001243,53.2166,80.5412,88.2523,271.8611,0.00044487,6.802e-05,0.0,0 STARLINK-3331,1 50834U 22001AH  23144.14101093  .00006802  00000-0  44487-3 0  9994,2 50834  53.2166  80.5412 0001243  88.2523 271.8611 15.08853880 76198,6917.838,95.437,540.563,538.843,0.0
50834.0,STARLINK-3331,PAYLOAD,2023-05-26 01:29:15,15.08844773,0.000111,53.2163,71.9201,80.1818,279.9299,7.7563e-05,9.47e-06,0.0,0 STARLINK-3331,1 50834U 22001AH  23146.06198302  .00000947  00000-0  77563-4 0  9992,2 50834  53.2163  71.9201 0001110  80.1818 279.9299 15.08844773 77762,6917.866,95.437,540.499,538.963,0.0
50834.0,STARLINK-3331,PAYLOAD,2023-05-26 06:15:24,15.08852222,0.0001172,53.2165,71.0269,74.2757,285.8365,0.00022695,3.327e-05,0.0,0 STARLINK-3331,1 50834U 22001AH  23146.26069952  .00003327  00000-0  22695-3 0  9992,2 50834  53.2165  71.0269 0001172  74.2757 285.8365 15.08852222 76513,6917.843,95.437,540.519,538.897,0.0
50834.0,STARLINK-3331,PAYLOAD,2023-05-26 18:58:30,15.08839396,0.0001196,53.2165,68.6487,69.2582,290.8538,0.00029543,4.417e-05,0.0,0 STARLINK-3331,1 50834U 22001AH  23146.79062976  .00004417  00000-0  29543-3 0  9999,2 50834  53.2165  68.6487 0001196  69.2582 290.8538 15.08839396 77878,6917.882,95.438,540.575,538.92,0.0
50834.0,STARLINK-3331,PAYLOAD,2023-05-26 22:09:16,15.08840822,0.000117,53.2161,68.0531,82.1986,277.9139,0.00030545,4.577e-05,0.0,0 STARLINK-3331,1 50834U 22001AH  23146.92310922  .00004577  00000-0  30545-3 0  9992,2 50834  53.2161  68.0531 0001170  82.1986 277.9139 15.08840822 76612,6917.878,95.438,540.552,538.933,0.0
50834.0,STARLINK-3331,PAYLOAD,2023-05-27 01:20:02,15.08847596,0.0001164,53.2162,67.4575,88.2987,271.8138,0.00040168,6.112e-05,0.0,0 STARLINK-3331,1 50834U 22001AH  23147.05558710  .00006112  00000-0  40168-3 0  9995,2 50834  53.2162  67.4575 0001164  88.2987 271.8138 15.08847596 77916,6917.857,95.437,540.527,538.917,0.0
50834.0,STARLINK-3331,PAYLOAD,2023-05-27 22:00:03,15.08838293,0.000125,53.216,63.5918,97.0184,263.095,0.00011261,1.505e-05,0.0,0 STARLINK-3331,1 50834U 22001AH  23147.91670939  .00001505  00000-0  11261-3 0  9991,2 50834  53.2160  63.5918 0001250  97.0184 263.0950 15.08838293 76766,6917.886,95.438,540.615,538.886,0.0
50834.0,STARLINK-3331,PAYLOAD,2023-05-28 01:10:49,15.08840615,0.0001075,53.2154,62.9986,92.1487,267.9628,7.8616e-05,9.64e-06,0.0,0 STARLINK-3331,1 50834U 22001AH  23148.04918904  .00000964  00000-0  78616-4 0  9999,2 50834  53.2154  62.9986 0001075  92.1487 267.9628 15.08840615 78065,6917.879,95.438,540.487,539.0,0.0
50834.0,STARLINK-3331,PAYLOAD,2023-05-28 21:50:50,15.08847895,0.0001143,53.2166,59.1333,90.2236,269.8888,0.0002255,3.304e-05,0.0,0 STARLINK-3331,1 50834U 22001AH  23148.91030560  .00003304  00000-0  22550-3 0  9994,2 50834  53.2166  59.1333 0001143  90.2236 269.8888 15.08847895 76917,6917.856,95.437,540.512,538.931,0.0
50834.0,STARLINK-3331,PAYLOAD,2023-05-29 01:01:36,15.08851471,0.0001083,53.2158,58.5377,88.7599,271.3517,0.00025722,3.809e-05,0.0,0 STARLINK-3331,1 50834U 22001AH  23149.04278283  .00003809  00000-0  25722-3 0  9999,2 50834  53.2158  58.5377 0001083  88.7599 271.3517 15.08851471 78213,6917.845,95.437,540.46,538.961,0.0
50834.0,STARLINK-3331,PAYLOAD,2023-05-29 21:41:37,15.08835549,0.0001021,53.2172,54.673,87.9137,272.1972,8.2257e-07,-2.75e-06,0.0,0 STARLINK-3331,1 50834U 22001AH  23149.90391173 -.00000275  00000-0  82257-6 0  9992,2 50834  53.2172  54.6730 0001021  87.9137 272.1972 15.08835549 77064,6917.894,95.438,540.465,539.053,0.0
50834.0,STARLINK-3331,PAYLOAD,2023-05-30 04:03:10,15.08836754,0.0001144,53.2171,53.4814,79.0678,281.0443,2.1981e-05,6.2e-07,0.0,0 STARLINK-3331,1 50834U 22001AH  23150.16887212  .00000062  00000-0  21981-4 0  9994,2 50834  53.2171  53.4814 0001144  79.0678 281.0443 15.08836754 78388,6917.89,95.438,540.547,538.964,0.0
50834.0,STARLINK-3331,PAYLOAD,2023-05-30 21:32:24,15.08841671,0.0001114,53.2174,50.21,93.9108,266.2011,2.4436e-05,1.01e-06,0.0,0 STARLINK-3331,1 50834U 22001AH  23150.89751080  .00000101  00000-0  24436-4 0  9999,2 50834  53.2174  50.2100 0001114  93.9108 266.2011 15.08841671 77215,6917.875,95.437,540.511,538.97,0.0
50834.0,STARLINK-3331,PAYLOAD,2023-05-31 02:18:34,15.08846121,0.0001164,53.2169,49.3185,92.9318,267.1807,0.00024843,3.669e-05,0.0,0 STARLINK-3331,1 50834U 22001AH  23151.09622990  .00003669  00000-0  24843-3 0  9992,2 50834  53.2169  49.3185 0001164  92.9318 267.1807 15.08846121 78521,6917.862,95.437,540.532,538.921,0.0
50834.0,STARLINK-3331,PAYLOAD,2023-05-31 21:23:12,15.08838155,0.0001167,53.2164,45.75,112.7798,247.3318,0.00014032,1.946e-05,0.0,0 STARLINK-3331,1 50834U 22001AH  23151.89111399  .00001946  00000-0  14032-3 0  9991,2 50834  53.2164  45.7500 0001167 112.7798 247.3318 15.08838155 77369,6917.886,95.438,540.558,538.944,0.0
50834.0,STARLINK-3331,PAYLOAD,2023-06-01 02:09:21,15.08847118,0.0001214,53.2161,44.8581,114.406,245.7059,0.00029232,4.368e-05,0.0,0 STARLINK-3331,1 50834U 22001AH  23152.08983060  .00004368  00000-0  29232-3 0  9994,2 50834  53.2161  44.8581 0001214 114.4060 245.7059 15.08847118 78677,6917.859,95.437,540.563,538.884,0.0
50834.0,STARLINK-3331,PAYLOAD,2023-06-01 21:13:59,15.08841674,0.0001409,53.2166,41.287,133.1471,226.9639,8.2237e-05,1.021e-05,0.0,0 STARLINK-3331,1 50834U 22001AH  23152.88471218  .00001021  00000-0  82237-4 0  9997,2 50834  53.2166  41.2870 0001409 133.1471 226.9639 15.08841674 78793,6917.875,95.437,540.715,538.766,0.0
